$$SOE
2460728.500000000, A.D. 2025-Feb-22 00:00:00.0000, -2.902411667679420E+07, -2.933555992767348E+08, -7.652446196582992E+07,
2460735.500000000, A.D. 2025-Mar-01 00:00:00.0000, -1.727597528972402E+07, -2.927201566685391E+08, -8.059135875965413E+07,
2460742.500000000, A.D. 2025-Mar-08 00:00:00.0000, -5.498025342273223E+06, -2.915795525770603E+08, -8.451915326224989E+07,
2460749.500000000, A.D. 2025-Mar-15 00:00:00.0000, 6.289452679316383E+06, -2.899334097099199E+08, -8.830038696031199E+07,
2460756.500000000, A.D. 2025-Mar-22 00:00:00.0000, 1.806596927741011E+07, -2.877821611942519E+08, -9.192776692495075E+07,
2460763.500000000, A.D. 2025-Mar-29 00:00:00.0000, 2.981085032446515E+07, -2.851270681359313E+08, -9.539417968430996E+07,
2460770.500000000, A.D. 2025-Apr-05 00:00:00.0000, 4.150326458601161E+07, -2.819702358256964E+08, -9.869270556156875E+07,
2460777.500000000, A.D. 2025-Apr-12 00:00:00.0000, 5.312225251682725E+07, -2.783146283807150E+08, -1.018166332831205E+08,
2460784.500000000, A.D. 2025-Apr-19 00:00:00.0000, 6.464675619574858E+07, -2.741640825848839E+08, -1.047594748967158E+08,
2460791.500000000, A.D. 2025-Apr-26 00:00:00.0000, 7.605565071722500E+07, -2.695233210040017E+08, -1.075149810213452E+08,
2460798.500000000, A.D. 2025-May-03 00:00:00.0000, 8.732777719158565E+07, -2.643979642208932E+08, -1.100771564125843E+08,
2460805.500000000, A.D. 2025-May-10 00:00:00.0000, 9.844197741226272E+07, -2.587945420363108E+08, -1.124402758136948E+08,
2460812.500000000, A.D. 2025-May-17 00:00:00.0000, 1.093771302487272E+08, -2.527205035228574E+08, -1.145989000622342E+08,
2460819.500000000, A.D. 2025-May-24 00:00:00.0000, 1.201121899509073E+08, -2.461842258289001E+08, -1.165478924326081E+08,
2460826.500000000, A.D. 2025-May-31 00:00:00.0000, 1.306262267778850E+08, -2.391950212613840E+08, -1.182824351818481E+08,
2460833.500000000, A.D. 2025-Jun-07 00:00:00.0000, 1.408984695258315E+08, -2.317631412753302E+08, -1.197980461053187E+08,
2460840.500000000, A.D. 2025-Jun-14 00:00:00.0000, 1.509083475515824E+08, -2.238997778571839E+08, -1.210905948661998E+08,
2460847.500000000, A.D. 2025-Jun-21 00:00:00.0000, 1.606355334614722E+08, -2.156170653819358E+08, -1.221563193935248E+08,
2460854.500000000, A.D. 2025-Jun-28 00:00:00.0000, 1.700599895403973E+08, -2.069280809874632E+08, -1.229918424094966E+08,
2460861.500000000, A.D. 2025-Jul-05 00:00:00.0000, 1.791620163349448E+08, -1.978468411265135E+08, -1.235941876948145E+08,
2460868.500000000, A.D. 2025-Jul-12 00:00:00.0000, 1.879223021038805E+08, -1.883882949255510E+08, -1.239607959704671E+08,
2460875.500000000, A.D. 2025-Jul-19 00:00:00.0000, 1.963219732026579E+08, -1.785683147533298E+08, -1.240895403725078E+08,
2460882.500000000, A.D. 2025-Jul-26 00:00:00.0000, 2.043426454652298E+08, -1.684036838869716E+08, -1.239787414442432E+08,
2460889.500000000, A.D. 2025-Aug-02 00:00:00.0000, 2.119664764808082E+08, -1.579120810906725E+08, -1.236271815412113E+08,
2460896.500000000, A.D. 2025-Aug-09 00:00:00.0000, 2.191762185999418E+08, -1.471120619676784E+08, -1.230341185362879E+08,
2460903.500000000, A.D. 2025-Aug-16 00:00:00.0000, 2.259552725345534E+08, -1.360230370058559E+08, -1.221992987137140E+08,
2460910.500000000, A.D. 2025-Aug-23 00:00:00.0000, 2.322877416112137E+08, -1.246652461676112E+08, -1.211229687479568E+08,
2460917.500000000, A.D. 2025-Aug-30 00:00:00.0000, 2.381584867589933E+08, -1.130597291932662E+08, -1.198058866120178E+08,
2460924.500000000, A.D. 2025-Sep-06 00:00:00.0000, 2.435531805493616E+08, -1.012282905294188E+08, -1.182493310818807E+08,
2460931.500000000, A.D. 2025-Sep-13 00:00:00.0000, 2.484583583258716E+08, -8.919346130359425E+07, -1.164551097608947E+08,
2460938.500000000, A.D. 2025-Sep-20 00:00:00.0000, 2.528614693813161E+08, -7.697845994514333E+07, -1.144255659273713E+08,
2460945.500000000, A.D. 2025-Sep-27 00:00:00.0000, 2.567509289135007E+08, -6.460714832088271E+07, -1.121635839235066E+08,
2460952.500000000, A.D. 2025-Oct-04 00:00:00.0000, 2.601161684052421E+08, -5.210398286149929E+07, -1.096725927420027E+08,
2460959.500000000, A.D. 2025-Oct-11 00:00:00.0000, 2.629476837049776E+08, -3.949396167330444E+07, -1.069565677455287E+08,
2460966.500000000, A.D. 2025-Oct-18 00:00:00.0000, 2.652370807324191E+08, -2.680256799756682E+07, -1.040200304666363E+08,
2460973.500000000, A.D. 2025-Oct-25 00:00:00.0000, 2.669771185848545E+08, -1.405571013142949E+07, -1.008680464075951E+08,
2460980.500000000, A.D. 2025-Nov-01 00:00:00.0000, 2.681617497195526E+08, -1.279657957759872E+06, -9.750622076034112E+07,
2460987.500000000, A.D. 2025-Nov-08 00:00:00.0000, 2.687861568878071E+08, 1.149902368342616E+07, -9.394069198265181E+07,
2460994.500000000, A.D. 2025-Nov-15 00:00:00.0000, 2.688467866184522E+08, 2.425354448170174E+07, -9.017812319339925E+07,
2461001.500000000, A.D. 2025-Nov-22 00:00:00.0000, 2.683413793104851E+08, 3.695696093846675E+07, -8.622569136207962E+07,
2461008.500000000, A.D. 2025-Nov-29 00:00:00.0000, 2.672689954480676E+08, 4.958225226855566E+07, -8.209107415476190E+07,
2461015.500000000, A.D. 2025-Dec-06 00:00:00.0000, 2.656300353649344E+08, 6.210239944842845E+07, -7.778243423652151E+07,
2461022.500000000, A.D. 2025-Dec-13 00:00:00.0000, 2.634262527333264E+08, 7.449046365517947E+07, -7.330840136804011E+07,
2461029.500000000, A.D. 2025-Dec-20 00:00:00.0000, 2.606607650237137E+08, 8.671966469951054E+07, -6.867805256400564E+07,
2461036.500000000, A.D. 2025-Dec-27 00:00:00.0000, 2.573380596463719E+08, 9.876346160795890E+07, -6.390089005354876E+07,
2461043.500000000, A.D. 2026-Jan-03 00:00:00.0000, 2.534639941471772E+08, 1.105956342820621E+08, -5.898681703488632E+07,
2461050.500000000, A.D. 2026-Jan-10 00:00:00.0000, 2.490457904430950E+08, 1.221903650794801E+08, -5.394611138670274E+07,
2461057.500000000, A.D. 2026-Jan-17 00:00:00.0000, 2.440920232501658E+08, 1.335223197366355E+08, -4.878939748165008E+07,
2461064.500000000, A.D. 2026-Jan-24 00:00:00.0000, 2.386126027491759E+08, 1.445667271600489E+08, -4.352761624282346E+07,
2461071.500000000, A.D. 2026-Jan-31 00:00:00.0000, 2.326187515285746E+08, 1.552994575829768E+08, -3.817199359960089E+07,
2461078.500000000, A.D. 2026-Feb-07 00:00:00.0000, 2.261229759324897E+08, 1.656970985403120E+08, -3.273400752362204E+07,
2461085.500000000, A.D. 2026-Feb-14 00:00:00.0000, 2.191390321858985E+08, 1.757370281700332E+08, -2.722535385531307E+07,
2461092.500000000, A.D. 2026-Feb-21 00:00:00.0000, 2.116818878570091E+08, 1.853974859554960E+08, -2.165791110845667E+07,
2461099.500000000, A.D. 2026-Feb-28 00:00:00.0000, 2.037676777801312E+08, 1.946576416108885E+08, -1.604370426576146E+07,
2461106.500000000, A.D. 2026-Mar-07 00:00:00.0000, 1.954136526253314E+08, 2.034976597564037E+08, -1.039486775024585E+07,
2461113.500000000, A.D. 2026-Mar-14 00:00:00.0000, 1.866381232142859E+08, 2.118987576951200E+08, -4.723608242104352E+06,
2461120.500000000, A.D. 2026-Mar-21 00:00:00.0000, 1.774604027279137E+08, 2.198432588408724E+08, 9.578325094623715E+05,
2461127.500000000, A.D. 2026-Mar-28 00:00:00.0000, 1.679007451742254E+08, 2.273146425052305E+08, 6.637214928329527E+06,
2461134.500000000, A.D. 2026-Apr-04 00:00:00.0000, 1.579802799116458E+08, 2.342975887957689E+08, 1.230233866272022E+07,
2461141.500000000, A.D. 2026-Apr-11 00:00:00.0000, 1.477209429086945E+08, 2.407780180338611E+08, 1.794107916752221E+07,
2461148.500000000, A.D. 2026-Apr-18 00:00:00.0000, 1.371454053210897E+08, 2.467431245296511E+08, 2.354142358201447E+07,
2461155.500000000, A.D. 2026-Apr-25 00:00:00.0000, 1.262769998897254E+08, 2.521814046499713E+08, 2.909150569371922E+07,
2461162.500000000, A.D. 2026-May-02 00:00:00.0000, 1.151396456814130E+08, 2.570826791187801E+08, 3.457963979714106E+07,
2461169.500000000, A.D. 2026-May-09 00:00:00.0000, 1.037577717945748E+08, 2.614381094815927E+08, 3.999435326206475E+07,
2461176.500000000, A.D. 2026-May-16 00:00:00.0000, 9.215624089023548E+07, 2.652402089047700E+08, 4.532441763365401E+07,
2461183.500000000, A.D. 2026-May-23 00:00:00.0000, 8.036027306697690E+07, 2.684828484121077E+08, 5.055887820379953E+07,
2461190.500000000, A.D. 2026-May-30 00:00:00.0000, 6.839536845543204E+07, 2.711612589923483E+08, 5.568708214411303E+07,
2461197.500000000, A.D. 2026-Jun-06 00:00:00.0000, 5.628722863015312E+07, 2.732720264493741E+08, 6.069870484929255E+07,
2461204.500000000, A.D. 2026-Jun-13 00:00:00.0000, 4.406168090031201E+07, 2.748130794135929E+08, 6.558377408664106E+07,
2461211.500000000, A.D. 2026-Jun-20 00:00:00.0000, 3.174460537268170E+07, 2.757836736887504E+08, 7.033269217154443E+07,
2461218.500000000, A.D. 2026-Jun-27 00:00:00.0000, 1.936186344409602E+07, 2.761843728510730E+08, 7.493625624460180E+07,
2461225.500000000, A.D. 2026-Jul-04 00:00:00.0000, 6.939228042143093E+06, 2.760170246122323E+08, 7.938567655458297E+07,
2461232.500000000, A.D. 2026-Jul-11 00:00:00.0000, -5.497683843866445E+06, 2.752847331240712E+08, 8.367259269966149E+07,
2461239.500000000, A.D. 2026-Jul-18 00:00:00.0000, -1.792347599404446E+07, 2.739918275758367E+08, 8.778908782406893E+07,
2461246.500000000, A.D. 2026-Jul-25 00:00:00.0000, -3.031303490669679E+07, 2.721438274219093E+08, 9.172770078745596E+07,
2461253.500000000, A.D. 2026-Aug-01 00:00:00.0000, -4.264158863182282E+07, 2.697474045331880E+08, 9.548143633240770E+07,
2461260.500000000, A.D. 2026-Aug-08 00:00:00.0000, -5.488476212488436E+07, 2.668103425794773E+08, 9.904377327437995E+07,
2461267.500000000, A.D. 2026-Aug-15 00:00:00.0000, -6.701862859183136E+07, 2.633414944355210E+08, 1.024086707720764E+08,
2461274.500000000, A.D. 2026-Aug-22 00:00:00.0000, -7.901975750680561E+07, 2.593507391742163E+08, 1.055705729209530E+08,
2461281.500000000, A.D. 2026-Aug-29 00:00:00.0000, -9.086526153454313E+07, 2.548489376105881E+08, 1.085244118496741E+08,
2461288.500000000, A.D. 2026-Sep-05 00:00:00.0000, -1.025328401934221E+08, 2.498478838345640E+08, 1.112656089659403E+08,
2461295.500000000, A.D. 2026-Sep-12 00:00:00.0000, -1.140008178227627E+08, 2.443602555266795E+08, 1.137900744204346E+08,
$$EOE